[{"OBJECT_ID":"1968-050D","OBJECT_NAME":"OPS 9344 (IDSCS 23)","NORAD_CAT_ID":"3287","OBJECT_TYPE":"PAYLOAD","PERIOD":"1337.788","INCLINATION":"1.0934","APOGEE":"33947.491","PERIGEE":"33731.875","ECCENTRICITY":"0.0026806","MEAN_MOTION":"1.07640323","TLE_LINE1":"1 03287U 68050D   16237.10958697 -.00000107  00000-0  00000+0 0  9991","TLE_LINE2":"2 03287   1.0934   9.7285 0026806 117.6171 189.4908  1.07640323189256","LAUNCH_DATE":"1968-06-13","LAUNCH_SITE":"AIR FORCE EASTERN TEST RANGE","OWNER":"UNITED STATES OF AMERICA","ORBIT_TYPE":"Unclassified","OPERATIONAL_STATUS":"Nonoperational","satInfo":{"lng":-89.46158877490467,"lat":1.107475393214264,"elevation":-7.896146294011664,"azimuth":44.46158877490465,"range":40619.07952647139,"height":33863.330246996455,"velocity":3.146368578414629},"x":-245,"y":-4,"dx":0.02956614332697413,"dy":-3.1462296601493764,"maxAlt":243,"minAlt":242},{"OBJECT_ID":"1968-050E","OBJECT_NAME":"OPS 9345 (IDSCS 24)","NORAD_CAT_ID":"3288","OBJECT_TYPE":"PAYLOAD","PERIOD":"1339.813","INCLINATION":"1.0931","APOGEE":"34028.647","PERIGEE":"33731.870","ECCENTRICITY":"0.0036859","MEAN_MOTION":"1.07477632","TLE_LINE1":"1  3288U 68050E   16238.43278596 -.00000072 +00000-0 +00000-0 0  9994","TLE_LINE2":"2  3288 001.0931 004.0549 0036859 118.8344 164.3357 01.07477632100736","LAUNCH_DATE":"1968-06-13","LAUNCH_SITE":"AIR FORCE EASTERN TEST RANGE","OWNER":"UNITED STATES OF AMERICA","ORBIT_TYPE":"Unclassified","OPERATIONAL_STATUS":"Nonoperational","satInfo":{"lng":137.63862216028716,"lat":-1.058634862798015,"elevation":-9.984563852569702,"azimuth":177.36137783971284,"range":40959.991011642815,"height":33968.373879350416,"velocity":3.1397550520472275},"x":163,"y":179,"dx":-2.3199954923906017,"dy":2.115580937270748,"maxAlt":244,"minAlt":242},{"OBJECT_ID":"1968-050G","OBJECT_NAME":"OPS 9347 (IDSCS 26)","NORAD_CAT_ID":"3290","OBJECT_TYPE":"PAYLOAD","PERIOD":"1345.357","INCLINATION":"1.0961","APOGEE":"34249.760","PERIGEE":"33732.694","ECCENTRICITY":"0.0064042","MEAN_MOTION":"1.07034781","TLE_LINE1":"1 03290U 68050G   16238.42333675 -.00000070  00000-0  00000+0 0  9993","TLE_LINE2":"2 03290   1.0961 352.8848 0064042 124.9404 181.6734  1.07034781100564","LAUNCH_DATE":"1968-06-13","LAUNCH_SITE":"AIR FORCE EASTERN TEST RANGE","OWNER":"UNITED STATES OF AMERICA","ORBIT_TYPE":"Unclassified","OPERATIONAL_STATUS":"Nonoperational","satInfo":{"lng":118.85231053859722,"lat":-0.6809534428146361,"elevation":-9.589707328061579,"azimuth":196.14768946140276,"range":41044.242455532265,"height":34095.407779570756,"velocity":3.1342028720793413},"x":214,"y":117,"dx":-1.5124206704234493,"dy":2.7451432310584956,"maxAlt":245,"minAlt":242},{"OBJECT_ID":"1968-050H","OBJECT_NAME":"OPS 9348 (IDSCS 27)","NORAD_CAT_ID":"3291","OBJECT_TYPE":"PAYLOAD","PERIOD":"1348.720","INCLINATION":"1.0998","APOGEE":"34382.623","PERIGEE":"33734.351","ECCENTRICITY":"0.0080159","MEAN_MOTION":"1.0676784","TLE_LINE1":"1 03291U 68050H   16238.73915709 -.00000145  00000-0  00000+0 0  9995","TLE_LINE2":"2 03291   1.0998 347.5106 0080159 128.2537 220.9759  1.06767840187774","LAUNCH_DATE":"1968-06-13","LAUNCH_SITE":"AIR FORCE EASTERN TEST RANGE","OWNER":"UNITED STATES OF AMERICA","ORBIT_TYPE":"Unclassified","OPERATIONAL_STATUS":"Nonoperational","satInfo":{"lng":2.4631993547640842,"lat":0.0762002333093232,"elevation":-8.929348095746615,"azimuth":312.53680064523587,"range":40613.10332245823,"height":33742.790865986986,"velocity":3.1643132209500693},"x":9,"y":-244,"dx":3.1613894965027876,"dy":0.1359948957911729,"maxAlt":246,"minAlt":242},{"OBJECT_ID":"1968-050J","OBJECT_NAME":"TITAN 3C TRANSTAGE R/B","NORAD_CAT_ID":"3292","OBJECT_TYPE":"ROCKET BODY","PERIOD":"1363.687","INCLINATION":"1.0834","APOGEE":"35016.659","PERIGEE":"33697.522","ECCENTRICITY":"0.0161916","MEAN_MOTION":"1.05596023","TLE_LINE1":"1 03292U 68050J   16238.29399822 -.00000216  00000-0  00000+0 0  9998","TLE_LINE2":"2 03292   1.0834  22.9728 0161916 322.9853 342.0744  1.05596023 91285","LAUNCH_DATE":"1968-06-13","LAUNCH_SITE":"AIR FORCE EASTERN TEST RANGE","OWNER":"UNITED STATES OF AMERICA","ORBIT_TYPE":"Unclassified","OPERATIONAL_STATUS":"N/A, derelict rocket body","satInfo":{"lng":-10.074466786026848,"lat":1.5664358950636277,"elevation":-7.281323751038134,"azimuth":325.07446678602685,"range":41323.27338400197,"height":34627.205322526555,"velocity":3.1075064525235208},"x":-45,"y":-247,"dx":3.0595925327328226,"dy":-0.5435898142173631,"maxAlt":251,"minAlt":241},{"OBJECT_ID":"1983-026C","OBJECT_NAME":"IUS R/B(2)","NORAD_CAT_ID":"13970","OBJECT_TYPE":"ROCKET BODY","PERIOD":"1089.613","INCLINATION":"1.6641","APOGEE":"35236.717","PERIGEE":"22158.744","ECCENTRICITY":"0.1864241","MEAN_MOTION":"1.32156997","TLE_LINE1":"1 13970U 83026C   16239.42938936 -.00000151  00000-0  00000+0 0  9991","TLE_LINE2":"2 13970   1.6641 344.7999 1864241 156.0560 103.9895  1.32156997161202","LAUNCH_DATE":"1983-04-04","LAUNCH_SITE":"AIR FORCE EASTERN TEST RANGE","OWNER":"UNITED STATES OF AMERICA","ORBIT_TYPE":"Unclassified","OPERATIONAL_STATUS":"N/A, derelict rocket body","satInfo":{"lng":-13.841817126860356,"lat":0.15713468681509343,"elevation":-11.5551427214658,"azimuth":328.84181712686035,"range":31316.776877273536,"height":24304.03840453438,"velocity":3.823476493494676},"x":-43,"y":-171,"dx":3.7124424625717714,"dy":-0.9147368246661904,"maxAlt":252,"minAlt":158},{"OBJECT_ID":"1995-073A","OBJECT_NAME":"ECHOSTAR 1","NORAD_CAT_ID":"23754","OBJECT_TYPE":"PAYLOAD","PERIOD":"1436.120","INCLINATION":"0.1914","APOGEE":"35800.679","PERIGEE":"35773.457","ECCENTRICITY":"0.0003228","MEAN_MOTION":"1.00270103","TLE_LINE1":"1 23754U 95073A   16238.99147818 -.00000268  00000-0  00000+0 0  9998","TLE_LINE2":"2 23754   0.1914  92.1924 0003228  95.8870  66.2512  1.00270103 75522","LAUNCH_DATE":"1995-12-28","LAUNCH_SITE":"Xichang Space Center, China","OWNER":"UNITED STATES OF AMERICA","ORBIT_TYPE":"Geosynchronous","OPERATIONAL_STATUS":"Operational","satInfo":{"lng":-95.81024294887641,"lat":-1.4967068795044698,"elevation":-10.02782121821827,"azimuth":50.810242948876386,"range":42831.07302547531,"height":35812.999233927636,"velocity":3.073232068628351},"x":-258,"y":25,"dx":-0.3111160471553727,"dy":-3.0574437284843214,"maxAlt":256,"minAlt":256},{"OBJECT_ID":"1996-021A","OBJECT_NAME":"ASTRA 1F","NORAD_CAT_ID":"23842","OBJECT_TYPE":"PAYLOAD","PERIOD":"1436.129","INCLINATION":"0.1111","APOGEE":"35803.378","PERIGEE":"35771.088","ECCENTRICITY":"0.0003829","MEAN_MOTION":"1.00269515","TLE_LINE1":"1 23842U 96021A   16239.08104855  .00000111  00000-0  00000+0 0  9991","TLE_LINE2":"2 23842   0.1111 291.4336 0003829 228.8637 247.9319  1.00269515 74411","LAUNCH_DATE":"1996-04-08","LAUNCH_SITE":"TYURATAM MISSILE AND SPACE COMPLEX","OWNER":"SOCIÉTÉ EUROPÉENNE DES SATELLITES","ORBIT_TYPE":"Geosynchronous","OPERATIONAL_STATUS":"Operational","satInfo":{"lng":99.77328726776938,"lat":-1.3600235250038475,"elevation":-9.904099956262357,"azimuth":215.2267127322306,"range":42769.80509679395,"height":35766.1308798096,"velocity":3.075783169044538},"x":252,"y":42,"dx":-0.5221143736740285,"dy":3.0311447810655032,"maxAlt":256,"minAlt":256},{"OBJECT_ID":"1996-054A","OBJECT_NAME":"AMC-1 (GE-1)","NORAD_CAT_ID":"24315","OBJECT_TYPE":"PAYLOAD","PERIOD":"1436.073","INCLINATION":"0.9541","APOGEE":"35797.333","PERIGEE":"35774.952","ECCENTRICITY":"0.0002654","MEAN_MOTION":"1.00273403","TLE_LINE1":"1 24315U 96054A   16239.42792717  .00000030  00000-0  00000+0 0  9991","TLE_LINE2":"2 24315   0.9541  86.5770 0002654  79.0417 194.3824  1.00273403 73117","LAUNCH_DATE":"1996-09-08","LAUNCH_SITE":"AIR FORCE EASTERN TEST RANGE","OWNER":"SOCIÉTÉ EUROPÉENNE DES SATELLITES","ORBIT_TYPE":"Geosynchronous","OPERATIONAL_STATUS":"Operational","satInfo":{"lng":-110.50914456611605,"lat":-2.326777351796082,"elevation":-10.840440414151645,"azimuth":65.50914456611603,"range":42893.29699561288,"height":35784.44495198773,"velocity":3.074381251743009},"x":-243,"y":89,"dx":-1.0771305995897975,"dy":-2.879515541284025,"maxAlt":256,"minAlt":256},{"OBJECT_ID":"1997-026A","OBJECT_NAME":"GALAXY 25 (TELSTAR 5)","NORAD_CAT_ID":"24812","OBJECT_TYPE":"PAYLOAD","PERIOD":"1436.071","INCLINATION":"0.0213","APOGEE":"35798.948","PERIGEE":"35773.270","ECCENTRICITY":"0.0003045","MEAN_MOTION":"1.00273525","TLE_LINE1":"1 24812U 97026A   16237.33351853 -.00000187  00000-0  00000+0 0  9997","TLE_LINE2":"2 24812   0.0213  89.3493 0003045  60.9767 209.6875  1.00273525 70423","LAUNCH_DATE":"1997-05-24","LAUNCH_SITE":"TYURATAM MISSILE AND SPACE COMPLEX","OWNER":"UNITED STATES OF AMERICA","ORBIT_TYPE":"Geosynchronous","OPERATIONAL_STATUS":"Operational","satInfo":{"lng":-103.07409863331709,"lat":-1.5353318900979802,"elevation":-10.067638717262824,"azimuth":58.07409863331706,"range":42824.17327127737,"height":35801.760304663185,"velocity":3.073793726950358},"x":-253,"y":57,"dx":-0.6953259057218614,"dy":-2.9941158562539703,"maxAlt":256,"minAlt":256},{"OBJECT_ID":"1997-050A","OBJECT_NAME":"AMC-3 (GE-3)","NORAD_CAT_ID":"24936","OBJECT_TYPE":"PAYLOAD","PERIOD":"1436.118","INCLINATION":"0.0598","APOGEE":"35794.614","PERIGEE":"35779.417","ECCENTRICITY":"0.0001802","MEAN_MOTION":"1.0027029","TLE_LINE1":"1 24936U 97050A   16238.88624978 -.00000300 +00000-0 +00000-0 0  9991","TLE_LINE2":"2 24936 000.0598 285.1641 0001802 275.0087 026.4477 01.00270290016520","LAUNCH_DATE":"1997-09-04","LAUNCH_SITE":"AIR FORCE EASTERN TEST RANGE","OWNER":"SOCIÉTÉ EUROPÉENNE DES SATELLITES","ORBIT_TYPE":"Geosynchronous","OPERATIONAL_STATUS":"Operational","satInfo":{"lng":-82.36861393556859,"lat":1.3080854554964196,"elevation":-7.289684171827881,"azimuth":37.36861393556856,"range":42518.88883234352,"height":35808.067270279265,"velocity":3.073641769619131},"x":-257,"y":-36,"dx":0.40817762455712947,"dy":-3.0464183486117467,"maxAlt":256,"minAlt":256}]